2026-07-05 11:23:45,376 - main - INFO - {'constellation_id': 1, 'constellation_name': 'TerraSAR-X', 'num_sat': 1, 'num_planes': 1, 'rx_constellation': '1', 'elevation_mask': [], 'el_mask_max': [], 'uere_list': [], 'tle_file_name': '../tests/com_gr2sp_budget/terrasarx.txt', 'obs_inci_angle_start': None, 'obs_inci_angle_stop': None, 'obs_swath_start': None, 'obs_swath_stop': None, 'frontal_area': None, 'mass': None}
2026-07-05 11:23:45,398 - main - INFO - ['Found satellite:', '31698', 'Kepler Elements', "{'epoch_mjd': 61068.089894, 'semi_major_axis': 6886575.424946125, 'eccentricity': 0.000195, 'inclination': 1.7007360896058743, 'right_ascension': 0.6596297374987369, 'arg_perigee': 1.4079920141688655, 'mean_anomaly': 4.877706567133592}"]
2026-07-05 11:23:46,972 - main - INFO - {'constellation_id': 1, 'station_id': 1, 'station_name': 'Svalbard', 'rx_constellation': '1', 'elevation_mask': [0.08726646259971647], 'el_mask_max': [1.5707963267948966], 'pos_eci': array([0., 0., 0.]), 'vel_eci': array([0., 0., 0.]), 'pos_ecf': array([1254944.19262441,  481104.81267317, 6214020.08271524]), 'vel_ecf': array([0., 0., 0.]), 'lla': array([1.35917515, 0.3660863 , 0.        ]), 'idx_sat_in_view': []}
2026-07-05 11:23:46,973 - main - INFO - {'type': 'Static', 'user_id': 0, 'rx_constellation': '1', 'name': '', 'ltan': -1, 'sso_raan_ref': None, 'sso_raan_ref_mjd': 0.0, 'elevation_mask': [0.08726646259971647], 'el_mask_max': [1.5707963267948966], 'pos_eci': array([0., 0., 0.]), 'vel_eci': array([0., 0., 0.]), 'pos_ecf': array([3923572.96352912,  299147.24517876, 5002803.34543355]), 'vel_ecf': array([0., 0., 0.]), 'norm_ecf': 0, 'lla': array([0.90757121, 0.07609636, 0.        ]), 'num_lat': 0, 'num_lon': 0, 'idx_sat_in_view': [], 'tle_file_name': '', 'kepler': <segments.KeplerSet object at 0x000001553121F9D0>, 'metric': []}
2026-07-05 11:23:46,975 - main - INFO - Loaded simulation, start MJD: 61072.0, stop MJD: 61073.0, size time steps in sec: 60.0
2026-07-05 11:23:46,975 - main - INFO - Loaded 1 number of Station to Spacecraft links
2026-07-05 11:23:46,975 - main - INFO - Loaded 1 number of User to Spacecraft links
2026-07-05 11:23:46,975 - main - INFO - Loaded 1 number of Spacecraft to Spacecraft links
2026-07-05 11:23:46,975 - main - INFO - Finished reading configuration file
2026-07-05 11:23:46,992 - main - INFO - Simulation time: 2026-02-01 00:00:00, time step: 0
2026-07-05 11:23:50,019 - main - INFO - Simulation time: 2026-02-01 01:40:00, time step: 100
2026-07-05 11:23:50,044 - main - INFO - Simulation time: 2026-02-01 03:20:00, time step: 200
2026-07-05 11:23:50,074 - main - INFO - Simulation time: 2026-02-01 05:00:00, time step: 300
2026-07-05 11:23:50,108 - main - INFO - Simulation time: 2026-02-01 06:40:00, time step: 400
2026-07-05 11:23:50,138 - main - INFO - Simulation time: 2026-02-01 08:20:00, time step: 500
2026-07-05 11:23:50,169 - main - INFO - Simulation time: 2026-02-01 10:00:00, time step: 600
2026-07-05 11:23:50,217 - main - INFO - Simulation time: 2026-02-01 11:40:00, time step: 700
2026-07-05 11:23:50,258 - main - INFO - Simulation time: 2026-02-01 13:20:00, time step: 800
2026-07-05 11:23:50,317 - main - INFO - Simulation time: 2026-02-01 15:00:00, time step: 900
2026-07-05 11:23:50,390 - main - INFO - Simulation time: 2026-02-01 16:40:00, time step: 1000
2026-07-05 11:23:50,427 - main - INFO - Simulation time: 2026-02-01 18:20:00, time step: 1100
2026-07-05 11:23:50,449 - main - INFO - Simulation time: 2026-02-01 20:00:00, time step: 1200
2026-07-05 11:23:50,457 - main - INFO - Simulation time: 2026-02-01 21:40:00, time step: 1300
2026-07-05 11:23:50,459 - main - INFO - Simulation time: 2026-02-01 23:20:00, time step: 1400
2026-07-05 11:23:50,460 - main - INFO - Plotting analysis com_gr2sp_budget
